NORAD_CAT_ID,OBJECT_NAME,OBJECT_TYPE,EPOCH,MEAN_MOTION,ECCENTRICITY,INCLINATION,RA_OF_ASC_NODE,ARG_OF_PERICENTER,MEAN_ANOMALY,BSTAR,MEAN_MOTION_DOT,MEAN_MOTION_DDOT,TLE_LINE0,TLE_LINE1,TLE_LINE2,SEMIMAJOR_AXIS,PERIOD,APOGEE,PERIGEE,DECAYED
49757.0,STARLINK-3197,PAYLOAD,2022-12-01 12:05:18,15.08851737,0.0001715,53.2172,100.0229,53.6281,306.4869,3.2195e-05,2.24e-06,0.0,0 STARLINK-3197,1 49757U 21115AK  22335.50369148  .00000224  00000-0  32195-4 0  9995,2 49757  53.2172 100.0229 0001715  53.6281 306.4869 15.08851737 55390,6917.845,95.437,540.896,538.523,0.0
49757.0,STARLINK-3197,PAYLOAD,2022-12-01 18:26:52,15.08835776,0.0001967,53.2167,98.8359,41.0095,319.1045,1.1591e-05,-1.04e-06,0.0,0 STARLINK-3197,1 49757U 21115AK  22335.76866253 -.00000104  00000-0  11591-4 0  9997,2 49757  53.2167  98.8359 0001967  41.0095 319.1045 15.08835776 56545,6917.893,95.438,541.119,538.398,0.0
49757.0,STARLINK-3197,PAYLOAD,2022-12-02 08:45:20,15.08841724,0.0001923,53.2167,96.1582,36.3543,323.7579,0.00013396,1.845e-05,0.0,0 STARLINK-3197,1 49757U 21115AK  22336.36481575  .00001845  00000-0  13396-3 0  9990,2 49757  53.2167  96.1582 0001923  36.3543 323.7579 15.08841724 56634,6917.875,95.437,541.07,538.41,0.0
49757.0,STARLINK-3197,PAYLOAD,2022-12-02 19:53:02,15.08835187,0.0001967,53.2166,94.0774,37.3722,322.7407,8.0561e-05,9.94e-06,0.0,0 STARLINK-3197,1 49757U 21115AK  22336.82850228  .00000994  00000-0  80561-4 0  9999,2 49757  53.2166  94.0774 0001967  37.3722 322.7407 15.08835187 56704,6917.895,95.438,541.121,538.399,0.0
49757.0,STARLINK-3197,PAYLOAD,2022-12-03 13:22:17,15.08835955,0.0002052,53.217,90.8071,41.022,319.0926,-7.006e-05,-1.403e-05,0.0,0 STARLINK-3197,1 49757U 21115AK  22337.55714786 -.00001403  00000-0 -70060-4 0  9999,2 49757  53.2170  90.8071 0002052  41.0220 319.0926 15.08835955 55701,6917.893,95.438,541.177,538.3380000000002,0.0
49757.0,STARLINK-3197,PAYLOAD,2022-12-03 16:33:03,15.08836531,0.0002073,53.2172,90.2118,40.0282,320.0863,-6.5326e-05,-1.328e-05,0.0,0 STARLINK-3197,1 49757U 21115AK  22337.68962757 -.00001328  00000-0 -65326-4 0  9991,2 49757  53.2172  90.2118 0002073  40.0282 320.0863 15.08836531 55724,6917.891,95.438,541.19,538.322,0.0
49757.0,STARLINK-3197,PAYLOAD,2022-12-04 00:29:59,15.08838181,0.0002033,53.2173,88.7246,38.485,321.6287,7.636600000000001e-05,9.27e-06,0.0,0 STARLINK-3197,1 49757U 21115AK  22338.02082285  .00000927  00000-0  76366-4 0  9997,2 49757  53.2173  88.7246 0002033  38.4850 321.6287 15.08838181 56885,6917.886,95.438,541.1569999999998,538.345,0.0
49757.0,STARLINK-3197,PAYLOAD,2022-12-04 06:51:31,15.08843758,0.0002197,53.2175,87.5351,41.8454,318.2706,7.0929e-05,8.41e-06,0.0,0 STARLINK-3197,1 49757U 21115AK  22338.28577910  .00000841  00000-0  70929-4 0  9993,2 49757  53.2175  87.5351 0002197  41.8454 318.2706 15.08843758 55816,6917.869000000002,95.437,541.254,538.214,0.0
49757.0,STARLINK-3197,PAYLOAD,2022-12-04 14:48:27,15.08833578,0.0002217,53.2183,86.0469,39.8826,320.2328,4.1265e-05,3.68e-06,0.0,0 STARLINK-3197,1 49757U 21115AK  22338.61698797  .00000368  00000-0  41265-4 0  9992,2 49757  53.2183  86.0469 0002217  39.8826 320.2328 15.08833578 56972,6917.9,95.438,541.299,538.231,0.0
49757.0,STARLINK-3197,PAYLOAD,2022-12-04 19:34:37,15.08834288,0.0002335,53.2181,85.1546,42.304,317.8131,6.4743e-05,7.42e-06,0.0,0 STARLINK-3197,1 49757U 21115AK  22338.81570838  .00000742  00000-0  64743-4 0  9991,2 49757  53.2181  85.1546 0002335  42.3040 317.8131 15.08834288 55897,6917.898,95.438,541.378,538.148,0.0
49757.0,STARLINK-3197,PAYLOAD,2022-12-05 00:20:46,15.08842346,0.0002463,53.218,84.2629,42.7602,317.3582,0.00010556,1.392e-05,0.0,0 STARLINK-3197,1 49757U 21115AK  22339.01442284  .00001392  00000-0  10556-3 0  9991,2 49757  53.2180  84.2629 0002463  42.7602 317.3582 15.08842346 57035,6917.873000000001,95.437,541.442,538.034,0.0
49757.0,STARLINK-3197,PAYLOAD,2022-12-05 19:25:23,15.08846921,0.0002069,53.2179,80.695,36.488,323.6252,0.00013776,1.905e-05,0.0,0 STARLINK-3197,1 49757U 21115AK  22339.80929763  .00001905  00000-0  13776-3 0  9997,2 49757  53.2179  80.6950 0002069  36.4880 323.6252 15.08846921 56047,6917.859,95.437,541.156,538.293,0.0
49757.0,STARLINK-3197,PAYLOAD,2022-12-06 12:54:37,15.08846574,0.0002265,53.2179,77.4226,45.4218,314.6958,0.00010701,1.415e-05,0.0,0 STARLINK-3197,1 49757U 21115AK  22340.53793689  .00001415  00000-0  10701-3 0  9996,2 49757  53.2179  77.4226 0002265  45.4218 314.6958 15.08846574 57262,6917.86,95.437,541.2919999999998,538.158,0.0
49757.0,STARLINK-3197,PAYLOAD,2022-12-06 19:16:11,15.08827956,0.0002024,53.2172,76.235,35.8231,324.2896,-4.5151e-05,-1.006e-05,0.0,0 STARLINK-3197,1 49757U 21115AK  22340.80291286 -.00001006  00000-0 -45151-4 0  9998,2 49757  53.2172  76.2350 0002024  35.8231 324.2896 15.08827956 56193,6917.917,95.438,541.182,538.382,0.0
49757.0,STARLINK-3197,PAYLOAD,2022-12-07 12:45:25,15.08837843,0.000208,53.217,72.9644,36.7451,323.3683,-5.564299999999999e-06,-3.77e-06,0.0,0 STARLINK-3197,1 49757U 21115AK  22341.53154871 -.00000377  00000-0 -55643-5 0  9995,2 49757  53.2170  72.9644 0002080  36.7451 323.3683 15.08837843 57412,6917.887,95.438,541.191,538.313,0.0
49757.0,STARLINK-3197,PAYLOAD,2022-12-07 15:56:11,15.08846207,0.0002176,53.2171,72.37,34.9347,325.1788,1.0259e-06,-2.72e-06,0.0,0 STARLINK-3197,1 49757U 21115AK  22341.66402384 -.00000272  00000-0  10259-5 0  9991,2 49757  53.2171  72.3700 0002176  34.9347 325.1788 15.08846207 57432,6917.861,95.437,541.232,538.221,0.0
49757.0,STARLINK-3197,PAYLOAD,2022-12-08 12:36:11,15.08853981,0.00022,53.217,68.5024,37.6377,322.4769,0.00012056,1.632e-05,0.0,0 STARLINK-3197,1 49757U 21115AK  22342.52513202  .00001632  00000-0  12056-3 0  9994,2 49757  53.2170  68.5024 0002200  37.6377 322.4769 15.08853981 56455,6917.8380000000025,95.437,541.225,538.181,0.0
49757.0,STARLINK-3197,PAYLOAD,2022-12-09 06:05:25,15.08851337,0.0002399,53.2172,65.2344,35.0618,325.0532,0.00022697,3.327e-05,0.0,0 STARLINK-3197,1 49757U 21115AK  22343.25376869  .00003327  00000-0  22697-3 0  9996,2 49757  53.2172  65.2344 0002399  35.0618 325.0532 15.08851337 56567,6917.846,95.437,541.37,538.0509999999998,0.0
49757.0,STARLINK-3197,PAYLOAD,2022-12-09 15:37:45,15.08835427,0.0002178,53.2198,63.4525,1.9218,358.1782,3.7698e-05,3.12e-06,0.0,0 STARLINK-3197,1 49757U 21115AK  22343.65122190  .00000312  00000-0  37698-4 0  9995,2 49757  53.2198  63.4525 0002178   1.9218 358.1782 15.08835427 57735,6917.894,95.438,541.266,538.253,0.0
49757.0,STARLINK-3197,PAYLOAD,2022-12-10 04:20:52,15.088231699999998,0.0002385,53.2168,61.0723,40.1379,319.9789,-0.00017959,-3.144e-05,0.0,0 STARLINK-3197,1 49757U 21115AK  22344.18116206 -.00003144  00000-0 -17959-3 0  9990,2 49757  53.2168  61.0723 0002385  40.1379 319.9789 15.08823170 57812,6917.932,95.439,541.447,538.1469999999998,0.0
49757.0,STARLINK-3197,PAYLOAD,2022-12-10 10:42:25,15.08825886,0.0002367,53.2181,59.8838,40.5231,319.5937,-0.00023469,-4.02e-05,0.0,0 STARLINK-3197,1 49757U 21115AK  22344.44612477 -.00004020  00000-0 -23469-3 0  9997,2 49757  53.2181  59.8838 0002367  40.5231 319.5937 15.08825886 56748,6917.924,95.438,541.4259999999998,538.151,0.0
49757.0,STARLINK-3197,PAYLOAD,2022-12-11 05:47:02,15.08822938,0.0002083,53.2179,56.3112,51.5839,308.5339,0.000265,3.929999999999999e-05,0.0,0 STARLINK-3197,1 49757U 21115AK  22345.24099589  .00003930  00000-0  26500-3 0  9995,2 49757  53.2179  56.3112 0002083  51.5839 308.5339 15.08822938 57978,6917.933000000001,95.439,541.239,538.357,0.0
49757.0,STARLINK-3197,PAYLOAD,2022-12-11 12:08:35,15.08820643,0.000224,53.2173,55.1217,36.8581,323.2565,0.00020783,3.019e-05,0.0,0 STARLINK-3197,1 49757U 21115AK  22345.50596298  .00003019  00000-0  20783-3 0  9998,2 49757  53.2173  55.1217 0002240  36.8581 323.2565 15.08820643 56908,6917.94,95.439,541.354,538.255,0.0
49757.0,STARLINK-3197,PAYLOAD,2022-12-12 11:59:21,15.08842234,0.0002303,53.2162,50.6613,35.2,324.9144,0.00025986,3.85e-05,0.0,0 STARLINK-3197,1 49757U 21115AK  22346.49955934  .00003850  00000-0  25986-3 0  9996,2 49757  53.2162  50.6613 0002303  35.2000 324.9144 15.08842234 58166,6917.874,95.437,541.332,538.145,0.0
49757.0,STARLINK-3197,PAYLOAD,2022-12-12 13:34:45,15.08840155,0.0002299,53.2161,50.3639,29.9812,330.1311,0.00035893,5.429e-05,0.0,0 STARLINK-3197,1 49757U 21115AK  22346.56580088  .00005429  00000-0  35893-3 0  9990,2 49757  53.2161  50.3639 0002299  29.9812 330.1311 15.08840155 57068,6917.88,95.438,541.335,538.154,0.0
49757.0,STARLINK-3197,PAYLOAD,2022-12-13 13:25:32,15.08840666,0.0002461,53.2166,45.9036,32.8148,327.2997,8.153899999999999e-05,1.01e-05,0.0,0 STARLINK-3197,1 49757U 21115AK  22347.55939978  .00001010  00000-0  81539-4 0  9997,2 49757  53.2166  45.9036 0002461  32.8148 327.2997 15.08840666 57211,6917.878000000002,95.438,541.446,538.0409999999998,0.0
49757.0,STARLINK-3197,PAYLOAD,2022-12-14 10:05:32,15.08839163,0.0002328,53.2164,42.0376,30.6736,329.4392,5.7213e-07,-2.79e-06,0.0,0 STARLINK-3197,1 49757U 21115AK  22348.42051886 -.00000279  00000-0  57213-6 0  9998,2 49757  53.2164  42.0376 0002328  30.6736 329.4392 15.08839163 57342,6917.8830000000025,95.438,541.3580000000002,538.137,0.0
49757.0,STARLINK-3197,PAYLOAD,2022-12-14 13:16:19,15.08836513,0.0002321,53.2168,41.4441,30.8496,329.2632,-1.2486e-05,-4.87e-06,0.0,0 STARLINK-3197,1 49757U 21115AK  22348.55300049 -.00000487  00000-0 -12486-4 0  9993,2 49757  53.2168  41.4441 0002321  30.8496 329.2632 15.08836513 57363,6917.891,95.438,541.362,538.15,0.0
49757.0,STARLINK-3197,PAYLOAD,2022-12-15 06:45:31,15.08933942,0.0002178,53.2175,38.1747,15.5133,344.5925,-0.0013062999999999,-0.00021072,0.0,0 STARLINK-3197,1 49757U 21115AK  22349.28161961 -.00021072  00000-0 -13063-2 0  9995,2 49757  53.2175  38.1747 0002178  15.5133 344.5925 15.08933942 58585,6917.593000000003,95.432,540.965,537.952,0.0
